NORAD_CAT_ID,OBJECT_NAME,OBJECT_TYPE,EPOCH,MEAN_MOTION,ECCENTRICITY,INCLINATION,RA_OF_ASC_NODE,ARG_OF_PERICENTER,MEAN_ANOMALY,BSTAR,MEAN_MOTION_DOT,MEAN_MOTION_DDOT,TLE_LINE0,TLE_LINE1,TLE_LINE2,SEMIMAJOR_AXIS,PERIOD,APOGEE,PERIGEE,DECAYED
52606.0,STARLINK-3928,PAYLOAD,2023-06-23 08:42:48,15.08842619,9.46e-05,53.2169,44.8729,96.9373,263.1726,0.00012118,1.641e-05,0.0,0 STARLINK-3928,1 52606U 22052J   23174.36305564  .00001641  00000-0  12118-3 0  9997,2 52606  53.2169  44.8729 0000946  96.9373 263.1726 15.08842619 61724,6917.872,95.437,540.392,539.083,0.0
52606.0,STARLINK-3928,PAYLOAD,2023-06-24 10:08:58,15.08841655,0.0001153,53.2176,40.1119,89.3349,270.7775,7.1669e-05,8.53e-06,0.0,0 STARLINK-3928,1 52606U 22052J   23175.42289652  .00000853  00000-0  71669-4 0  9995,2 52606  53.2176  40.1119 0001153  89.3349 270.7775 15.08841655 61888,6917.875,95.437,540.538,538.943,0.0
52606.0,STARLINK-3928,PAYLOAD,2023-06-25 00:27:25,15.08850843,0.0001078,53.2177,37.4356,95.6142,264.4973,7.8548e-05,9.63e-06,0.0,0 STARLINK-3928,1 52606U 22052J   23176.01904944  .00000963  00000-0  78548-4 0  9994,2 52606  53.2177  37.4356 0001078  95.6142 264.4973 15.08850843 61977,6917.847,95.437,540.458,538.967,0.0
52606.0,STARLINK-3928,PAYLOAD,2023-06-25 08:24:22,15.08838303,0.0001072,53.2184,35.9439,111.9655,248.1452,1.9143e-05,1.7e-07,0.0,0 STARLINK-3928,1 52606U 22052J   23176.35025753  .00000017  00000-0  19143-4 0  9999,2 52606  53.2184  35.9439 0001072 111.9655 248.1452 15.08838303 62020,6917.886,95.438,540.492,539.009,0.0
52606.0,STARLINK-3928,PAYLOAD,2023-06-26 14:36:42,15.08836312,0.0001114,53.2176,30.3001,81.9454,278.1664,6.6265e-05,7.67e-06,0.0,0 STARLINK-3928,1 52606U 22052J   23177.60882119  .00000767  00000-0  66265-4 0  9994,2 52606  53.2176  30.3001 0001114  81.9454 278.1664 15.08836312 62212,6917.892,95.438,540.527,538.986,0.0
52606.0,STARLINK-3928,PAYLOAD,2023-06-27 20:49:01,15.08840181,0.0001016,53.2179,24.6502,83.4131,276.6977,0.00012868,1.761e-05,0.0,0 STARLINK-3928,1 52606U 22052J   23178.86738050  .00001761  00000-0  12868-3 0  9991,2 52606  53.2179  24.6502 0001016  83.4131 276.6977 15.08840181 62407,6917.88,95.438,540.448,539.042,0.0
52606.0,STARLINK-3928,PAYLOAD,2023-06-28 17:29:03,15.08831181,0.0001005,53.2184,20.7849,92.8886,267.2221,5.5281e-05,5.92e-06,0.0,0 STARLINK-3928,1 52606U 22052J   23179.72850961  .00000592  00000-0  55281-4 0  9991,2 52606  53.2184  20.7849 0001005  92.8886 267.2221 15.08831181 62535,6917.907,95.438,540.468,539.077,0.0
52606.0,STARLINK-3928,PAYLOAD,2023-06-29 18:55:12,15.08842097,9.25e-05,53.2177,16.0269,96.6984,263.4113,5.9249e-05,6.55e-06,0.0,0 STARLINK-3928,1 52606U 22052J   23180.78834448  .00000655  00000-0  59249-4 0  9999,2 52606  53.2177  16.0269 0000925  96.6984 263.4113 15.08842097 62695,6917.874,95.437,540.379,539.099,0.0
52606.0,STARLINK-3928,PAYLOAD,2023-06-30 20:21:22,15.08844891,9.36e-05,53.218,11.2684,88.2868,271.8231,7.7872e-05,9.52e-06,0.0,0 STARLINK-3928,1 52606U 22052J   23181.84818243  .00000952  00000-0  77872-4 0  9994,2 52606  53.2180  11.2684 0000936  88.2868 271.8231 15.08844891 62853,6917.865,95.437,540.378,539.083,0.0
52606.0,STARLINK-3928,PAYLOAD,2023-07-01 18:36:47,15.08834977,9.16e-05,53.2179,7.1053,88.8235,271.2862,7.231e-06,-1.73e-06,0.0,0 STARLINK-3928,1 52606U 22052J   23182.77555233 -.00000173  00000-0  72310-5 0  9993,2 52606  53.2179   7.1053 0000916  88.8235 271.2862 15.08834977 62990,6917.896,95.438,540.394,539.127,0.0
52606.0,STARLINK-3928,PAYLOAD,2023-07-02 07:19:52,15.08840585,9.38e-05,53.2183,4.7259,86.3701,273.7398,6.9861e-05,8.24e-06,0.0,0 STARLINK-3928,1 52606U 22052J   23183.30546767  .00000824  00000-0  69861-4 0  9993,2 52606  53.2183   4.7259 0000938  86.3701 273.7398 15.08840585 63074,6917.879,95.438,540.392,539.095,0.0
52606.0,STARLINK-3928,PAYLOAD,2023-07-02 18:27:34,15.08836499,9.23e-05,53.2186,2.6464,72.4799,287.6294,3.104e-06,-2.38e-06,0.0,0 STARLINK-3928,1 52606U 22052J   23183.76915239 -.00000238  00000-0  31040-5 0  9996,2 52606  53.2186   2.6464 0000923  72.4799 287.6294 15.08836499 63145,6917.891,95.438,540.395,539.118,0.0
52606.0,STARLINK-3928,PAYLOAD,2023-07-03 18:18:21,15.08842452,9.86e-05,53.2181,358.1844,79.9018,280.2085,0.00013512,1.863e-05,0.0,0 STARLINK-3928,1 52606U 22052J   23184.76275017  .00001863  00000-0  13512-3 0  9996,2 52606  53.2181 358.1844 0000986  79.9018 280.2085 15.08842452 63295,6917.873,95.437,540.42,539.056,0.0
52606.0,STARLINK-3928,PAYLOAD,2023-07-05 06:52:13,15.08840806,0.0001027,53.2179,351.3473,87.7397,272.3713,3.1156e-05,2.08e-06,0.0,0 STARLINK-3928,1 52606U 22052J   23186.28627171  .00000208  00000-0  31156-4 0  9994,2 52606  53.2179 351.3473 0001027  87.7397 272.3713 15.08840806 63526,6917.878,95.438,540.453,539.032,0.0
52606.0,STARLINK-3928,PAYLOAD,2023-07-06 19:26:05,15.08847967,9.76e-05,53.2187,344.5066,94.9326,265.1778,9.5511e-05,1.233e-05,0.0,0 STARLINK-3928,1 52606U 22052J   23187.80978784  .00001233  00000-0  95511-4 0  9996,2 52606  53.2187 344.5066 0000976  94.9326 265.1778 15.08847967 63752,6917.856,95.437,540.396,539.046,0.0
52606.0,STARLINK-3928,PAYLOAD,2023-07-07 04:58:24,15.08841063,9.97e-05,53.2181,342.7231,97.1635,262.947,7.6632e-05,9.32e-06,0.0,0 STARLINK-3928,1 52606U 22052J   23188.20723005  .00000932  00000-0  76632-4 0  9993,2 52606  53.2181 342.7231 0000997  97.1635 262.9470 15.08841063 63813,6917.877,95.437,540.432,539.052,0.0
52606.0,STARLINK-3928,PAYLOAD,2023-07-08 09:35:21,15.08839579,9.99e-05,53.2171,337.369,86.1408,273.9698,6.2275e-05,7.03e-06,0.0,0 STARLINK-3928,1 52606U 22052J   23189.39955172  .00000703  00000-0  62275-4 0  9990,2 52606  53.2171 337.3690 0000999  86.1408 273.9698 15.08839579 63991,6917.882,95.438,540.438,539.056,0.0
52606.0,STARLINK-3928,PAYLOAD,2023-07-09 15:47:41,15.08840549,8.9e-05,53.2182,331.7201,91.6273,268.4821,3.366e-05,2.48e-06,0.0,0 STARLINK-3928,1 52606U 22052J   23190.65811444  .00000248  00000-0  33660-4 0  9994,2 52606  53.2182 331.7201 0000890  91.6273 268.4821 15.08840549 64188,6917.879,95.438,540.359,539.128,0.0
52606.0,STARLINK-3928,PAYLOAD,2023-07-10 02:55:24,15.08821854,9.04e-05,53.2178,329.638,87.4889,272.6206,-9.7517e-05,-1.839e-05,0.0,0 STARLINK-3928,1 52606U 22052J   23191.12181297 -.00001839  00000-0 -97517-4 0  9993,2 52606  53.2178 329.6380 0000904  87.4889 272.6206 15.08821854 64259,6917.936,95.439,540.426,539.175,0.0
52606.0,STARLINK-3928,PAYLOAD,2023-07-10 15:38:29,15.08825592,7.84e-05,53.2177,327.2589,89.2991,270.8091,7.1341e-06,-1.74e-06,0.0,0 STARLINK-3928,1 52606U 22052J   23191.65173342 -.00000174  00000-0  71341-5 0  9991,2 52606  53.2177 327.2589 0000784  89.2991 270.8091 15.08825592 64337,6917.924,95.438,540.332,539.247,0.0
52606.0,STARLINK-3928,PAYLOAD,2023-07-11 09:07:43,15.08837991,8.16e-05,53.2183,323.9882,86.0492,274.0593,0.00017452,2.491e-05,0.0,0 STARLINK-3928,1 52606U 22052J   23192.38036612  .00002491  00000-0  17452-3 0  9994,2 52606  53.2183 323.9882 0000816  86.0492 274.0593 15.08837991 64441,6917.887,95.438,540.316,539.187,0.0
52606.0,STARLINK-3928,PAYLOAD,2023-07-12 07:23:07,15.08857325,8.33e-05,53.2176,319.8262,82.1807,277.928,0.00050732,7.799e-05,0.0,0 STARLINK-3928,1 52606U 22052J   23193.30772403  .00007799  00000-0  50732-3 0  9996,2 52606  53.2176 319.8262 0000833  82.1807 277.9280 15.08857325 64588,6917.827,95.436,540.269,539.116,0.0
52606.0,STARLINK-3928,PAYLOAD,2023-07-13 13:35:26,15.08847112,0.0001185,53.2189,314.1784,118.4092,241.7019,-9.7343e-05,-1.837e-05,0.0,0 STARLINK-3928,1 52606U 22052J   23194.56627520 -.00001837  00000-0 -97343-4 0  9993,2 52606  53.2189 314.1784 0001185 118.4092 241.7019 15.08847112 64772,6917.859,95.437,540.543,538.904,0.0
52606.0,STARLINK-3928,PAYLOAD,2023-07-14 18:12:22,15.0885034,5.52e-05,53.217,308.8226,67.1869,292.9182,0.00029535,4.417e-05,0.0,0 STARLINK-3928,1 52606U 22052J   23195.75859269  .00004417  00000-0  29535-3 0  9994,2 52606  53.2170 308.8226 0000552  67.1869 292.9182 15.08850340 64958,6917.849,95.437,540.096,539.332,0.0
52606.0,STARLINK-3928,PAYLOAD,2023-07-15 06:55:28,15.08836383,5.9e-05,53.2173,306.4421,94.595,265.5109,0.00012799,1.75e-05,0.0,0 STARLINK-3928,1 52606U 22052J   23196.28852006  .00001750  00000-0  12799-3 0  9996,2 52606  53.2173 306.4421 0000590  94.5950 265.5109 15.08836383 65035,6917.891,95.438,540.165,539.348,0.0
52606.0,STARLINK-3928,PAYLOAD,2023-07-16 13:07:47,15.08839217,8.94e-05,53.2166,300.7945,90.2982,269.8113,0.00015975,2.256e-05,0.0,0 STARLINK-3928,1 52606U 22052J   23197.54708304  .00002256  00000-0  15975-3 0  9998,2 52606  53.2166 300.7945 0000894  90.2982 269.8113 15.08839217 65222,6917.883,95.438,540.366,539.129,0.0
52606.0,STARLINK-3928,PAYLOAD,2023-07-18 11:13:58,15.08845204,9.54e-05,53.216,292.1717,76.5991,283.5108,0.00020654,3.001e-05,0.0,0 STARLINK-3928,1 52606U 22052J   23199.46804296  .00003001  00000-0  20654-3 0  9997,2 52606  53.2160 292.1717 0000954  76.5991 283.5108 15.08845204 65513,6917.864,95.437,540.389,539.07,0.0
52606.0,STARLINK-3928,PAYLOAD,2023-07-19 09:29:23,15.08835738,0.0001144,53.2168,288.0078,97.7961,262.3161,-1.949e-05,-5.98e-06,0.0,0 STARLINK-3928,1 52606U 22052J   23200.39540800 -.00000598  00000-0 -19490-4 0  9997,2 52606  53.2168 288.0078 0001144  97.7961 262.3161 15.08835738 65659,6917.893,95.438,540.55,538.967,0.0
52606.0,STARLINK-3928,PAYLOAD,2023-07-20 15:41:42,15.08848609,0.000116,53.2185,282.3586,103.5576,256.5545,0.00012802,1.751e-05,0.0,0 STARLINK-3928,1 52606U 22052J   23201.65396021  .00001751  00000-0  12802-3 0  9990,2 52606  53.2185 282.3586 0001160 103.5576 256.5545 15.08848609 65848,6917.854,95.437,540.522,538.917,0.0
52606.0,STARLINK-3928,PAYLOAD,2023-07-21 04:24:47,15.08836738,0.000104,53.2187,279.9828,89.021,271.0901,0.00017327,2.471e-05,0.0,0 STARLINK-3928,1 52606U 22052J   23202.18388880  .00002471  00000-0  17327-3 0  9990,2 52606  53.2187 279.9828 0001040  89.0210 271.0901 15.08836738 65928,6917.89,95.438,540.475,539.036,0.0
